GLOBALSTAR M070         
1 32264U 07048B   23274.65134356 -.00000086  00000+0  97832-4 0  9994
2 32264  51.9736 231.0257 0000522 106.6391  65.0345 12.62278950734790
GLOBALSTAR M066         
1 32265U 07048C   23274.92025778 -.00000090  00000+0  74282-4 0  9991
2 32265  51.9663  92.2762 0001118  56.9236  90.5841 12.62265364737090
GLOBALSTAR M079         
1 37188U 10054A   23274.67687029 -.00000100  00000+0  23722-4 0  9991
2 37188  52.0023 240.8967 0000585  50.5344 120.2328 12.62268189597583
GLOBALSTAR M074         
1 37189U 10054B   23274.62427480 -.00000107  00000+0 -19632-4 0  9993
2 37189  52.0000 240.4758 0000493  71.6732 100.2221 12.62270139598181
GLOBALSTAR M076         
1 37190U 10054C   23274.93341778 -.00000103  00000+0  17775-5 0  9996
2 37190  52.0016 239.6485 0001065  67.3262 310.3313 12.62261525597941
GLOBALSTAR M077         
1 37191U 10054D   23274.93320630 -.00000076  00000+0  15646-3 0  9993
2 37191  52.0063 196.3274 0000649  74.5711   0.7259 12.62264153598316
GLOBALSTAR M067 [+]     
1 32263U 07048A   23275.14475804 -.00000108  00000+0 -75802-4 0  9993
2 32263  51.9732  61.8609 0001671  92.9532  78.0320 12.40632043732276
GLOBALSTAR M068 [-]     
1 32266U 07048D   23275.15065209 -.00000091  00000+0  69132-4 0  9990
2 32266  51.9901  44.4310 0000994 154.1815  17.1512 12.62767001739007
